ORBCOMM FM108           
1 41187U 15081J   24346.87155855  .00002311  00000+0  53941-3 0  9990
2 41187  47.0042 271.2086 0002126 163.3915 196.7041 14.57584961479463
ORBCOMM FM117           
1 41188U 15081K   24346.90681932  .00002248  00000+0  52562-3 0  9992
2 41188  47.0004 269.8724 0002527 179.9188 180.1698 14.57586281479512
ORBCOMM FM116           
1 41189U 15081L   24346.75937976  .00002017  00000+0  47562-3 0  9996
2 41189  47.0024   0.4083 0003011 274.6627  85.3914 14.57560769478308
